start=new Date('2022-06-02T00:00:00.000Z').valueOf();
sats=[{"DECAY_DATE":null,"SITE":"AFETR","LAUNCH_DATE":"2020-06-13","REV_AT_EPOCH":"10917","OBJECT_ID":"2020-038BE","OBJECT_NAME":"STARLINK-1498","REF_FRAME":"TEME","EPHEMERIS_TYPE":"0","EPOCH":"2022-06-01T09:48:22.639104","RA_OF_ASC_NODE":"259.4874","MEAN_MOTION_DOT":"0.00002777","CENTER_NAME":"EARTH","FILE":"3476255","MEAN_MOTION":"15.06388464","RCS_SIZE":"LARGE","TIME_SYSTEM":"UTC","INCLINATION":"53.0555","GP_ID":"205122864","SEMIMAJOR_AXIS":"6925.384","ECCENTRICITY":"0.00017640","TLE_LINE1":"1 45782U 20038BE  22152.40859536  .00002777  00000-0  20533-3 0  9990","MEAN_MOTION_DDOT":"0.0000000000000","MEAN_ELEMENT_THEORY":"SGP4","MEAN_ANOMALY":"295.5767","NORAD_CAT_ID":"45782","ELEMENT_SET_NO":"999","COUNTRY_CODE":"US","TLE_LINE2":"2 45782  53.0555 259.4874 0001764  64.5405 295.5767 15.06388464109176","ARG_OF_PERICENTER":"64.5405","OBJECT_TYPE":"PAYLOAD","APOAPSIS":"548.471","CLASSIFICATION_TYPE":"U","PERIAPSIS":"546.027","BSTAR":"0.00020533000000","PERIOD":"95.593"},{"APOAPSIS":"548.168","CLASSIFICATION_TYPE":"U","PERIAPSIS":"546.348","BSTAR":"0.00021626000000","PERIOD":"95.593","TLE_LINE2":"2 45783  53.0546 259.4615 0001314  76.4048 283.7087 15.06385360109172","ARG_OF_PERICENTER":"76.4048","OBJECT_TYPE":"PAYLOAD","MEAN_ANOMALY":"283.7087","MEAN_ELEMENT_THEORY":"SGP4","ELEMENT_SET_NO":"999","NORAD_CAT_ID":"45783","COUNTRY_CODE":"US","SEMIMAJOR_AXIS":"6925.393","GP_ID":"205123590","ECCENTRICITY":"0.00013140","TLE_LINE1":"1 45783U 20038BF  22152.41227818  .00002940  00000-0  21626-3 0  9990","MEAN_MOTION_DDOT":"0.0000000000000","MEAN_MOTION":"15.06385360","FILE":"3476255","INCLINATION":"53.0546","RCS_SIZE":"LARGE","TIME_SYSTEM":"UTC","RA_OF_ASC_NODE":"259.4615","MEAN_MOTION_DOT":"0.00002940","CENTER_NAME":"EARTH","REV_AT_EPOCH":"10917","OBJECT_ID":"2020-038BF","LAUNCH_DATE":"2020-06-13","OBJECT_NAME":"STARLINK-1505","EPOCH":"2022-06-01T09:53:40.834752","REF_FRAME":"TEME","EPHEMERIS_TYPE":"0","DECAY_DATE":null,"SITE":"AFETR"},{"SITE":"AFETR","DECAY_DATE":null,"OBJECT_NAME":"STARLINK-1510","REF_FRAME":"TEME","EPHEMERIS_TYPE":"0","EPOCH":"2022-06-01T14:03:08.476992","LAUNCH_DATE":"2020-06-13","OBJECT_ID":"2020-038BG","REV_AT_EPOCH":"10919","MEAN_MOTION_DOT":"0.00002613","CENTER_NAME":"EARTH","RA_OF_ASC_NODE":"258.6757","TIME_SYSTEM":"UTC","RCS_SIZE":"LARGE","INCLINATION":"53.0527","FILE":"3476255","MEAN_MOTION":"15.06399320","TLE_LINE1":"1 45784U 20038BG  22152.58551478  .00002613  00000-0  19425-3 0  9992","MEAN_MOTION_DDOT":"0.0000000000000","ECCENTRICITY":"0.00015430","SEMIMAJOR_AXIS":"6925.351","GP_ID":"205122362","COUNTRY_CODE":"US","MEAN_ELEMENT_THEORY":"SGP4","MEAN_ANOMALY":"301.4793","NORAD_CAT_ID":"45784","ELEMENT_SET_NO":"999","OBJECT_TYPE":"PAYLOAD","TLE_LINE2":"2 45784  53.0527 258.6757 0001543  58.6347 301.4793 15.06399320109193","ARG_OF_PERICENTER":"58.6347","BSTAR":"0.00019425000000","PERIOD":"95.592","APOAPSIS":"548.284","CLASSIFICATION_TYPE":"U","PERIAPSIS":"546.147"},{"PERIOD":"95.592","BSTAR":"0.00007435300000","PERIAPSIS":"545.933","APOAPSIS":"548.501","CLASSIFICATION_TYPE":"U","OBJECT_TYPE":"PAYLOAD","ARG_OF_PERICENTER":"54.7715","TLE_LINE2":"2 45785  53.0558 258.7589 0001854  54.7715 305.3447 15.06398846109194","COUNTRY_CODE":"US","NORAD_CAT_ID":"45785","ELEMENT_SET_NO":"999","MEAN_ELEMENT_THEORY":"SGP4","MEAN_ANOMALY":"305.3447","TLE_LINE1":"1 45785U 20038BH  22152.56706797  .00000826  00000-0  74353-4 0  9993","MEAN_MOTION_DDOT":"0.0000000000000","ECCENTRICITY":"0.00018540","GP_ID":"205122112","SEMIMAJOR_AXIS":"6925.352","RCS_SIZE":"LARGE","TIME_SYSTEM":"UTC","INCLINATION":"53.0558","MEAN_MOTION":"15.06398846","FILE":"3476255","CENTER_NAME":"EARTH","MEAN_MOTION_DOT":"0.00000826","RA_OF_ASC_NODE":"258.7589","REF_FRAME":"TEME","EPHEMERIS_TYPE":"0","EPOCH":"2022-06-01T13:36:34.672608","OBJECT_NAME":"STARLINK-1512","LAUNCH_DATE":"2020-06-13","OBJECT_ID":"2020-038BH","REV_AT_EPOCH":"10919","SITE":"AFETR","DECAY_DATE":null},{"DECAY_DATE":null,"SITE":"AFETR","LAUNCH_DATE":"2020-06-13","OBJECT_ID":"2020-038BJ","REV_AT_EPOCH":"10923","OBJECT_NAME":"STARLINK-1513","REF_FRAME":"TEME","EPHEMERIS_TYPE":"0","EPOCH":"2022-06-01T19:37:07.081248","RA_OF_ASC_NODE":"257.6459","MEAN_MOTION_DOT":"0.00022455","CENTER_NAME":"EARTH","MEAN_MOTION":"15.06587886","FILE":"3476255","RCS_SIZE":"LARGE","TIME_SYSTEM":"UTC","INCLINATION":"53.0561","SEMIMAJOR_AXIS":"6924.773","GP_ID":"205123364","MEAN_MOTION_DDOT":"0.0000000000000","TLE_LINE1":"1 45786U 20038BJ  22152.81744307  .00022455  00000-0  15138-2 0  9997","ECCENTRICITY":"0.00036170","MEAN_ELEMENT_THEORY":"SGP4","MEAN_ANOMALY":"83.9532","NORAD_CAT_ID":"45786","ELEMENT_SET_NO":"999","COUNTRY_CODE":"US","TLE_LINE2":"2 45786  53.0561 257.6459 0003617 276.1044  83.9532 15.06587886109230","ARG_OF_PERICENTER":"276.1044","OBJECT_TYPE":"PAYLOAD","APOAPSIS":"549.142","CLASSIFICATION_TYPE":"U","PERIAPSIS":"544.133","BSTAR":"0.00151380000000","PERIOD":"95.580"},{"PERIOD":"95.592","BSTAR":"0.00022279000000","PERIAPSIS":"546.118","CLASSIFICATION_TYPE":"U","APOAPSIS":"548.261","OBJECT_TYPE":"PAYLOAD","ARG_OF_PERICENTER":"62.1334","TLE_LINE2":"2 45787  53.0554 258.2095 0001547  62.1334 297.9812 15.06407871109212","COUNTRY_CODE":"US","ELEMENT_SET_NO":"999","NORAD_CAT_ID":"45787","MEAN_ANOMALY":"297.9812","MEAN_ELEMENT_THEORY":"SGP4","TLE_LINE1":"1 45787U 20038BK  22152.69239703  .00003039  00000-0  22279-3 0  9995","ECCENTRICITY":"0.00015470","MEAN_MOTION_DDOT":"0.0000000000000","GP_ID":"205123091","SEMIMAJOR_AXIS":"6925.324","INCLINATION":"53.0554","TIME_SYSTEM":"UTC","RCS_SIZE":"LARGE","FILE":"3476255","MEAN_MOTION":"15.06407871","MEAN_MOTION_DOT":"0.00003039","CENTER_NAME":"EARTH","RA_OF_ASC_NODE":"258.2095","EPOCH":"2022-06-01T16:37:03.103392","REF_FRAME":"TEME","EPHEMERIS_TYPE":"0","OBJECT_NAME":"STARLINK-1517","REV_AT_EPOCH":"10921","OBJECT_ID":"2020-038BK","LAUNCH_DATE":"2020-06-13","SITE":"AFETR","DECAY_DATE":null},{"EPOCH":"2022-06-01T19:09:39.034080","EPHEMERIS_TYPE":"0","REF_FRAME":"TEME","OBJECT_NAME":"STARLINK-1522","OBJECT_ID":"2020-055A","REV_AT_EPOCH":"10135","LAUNCH_DATE":"2020-08-07","SITE":"AFETR","DECAY_DATE":null,"INCLINATION":"53.0534","RCS_SIZE":"LARGE","TIME_SYSTEM":"UTC","FILE":"3476255","MEAN_MOTION":"15.06400063","MEAN_MOTION_DOT":"0.00001350","CENTER_NAME":"EARTH","RA_OF_ASC_NODE":"187.7120","COUNTRY_CODE":"US","ELEMENT_SET_NO":"999","NORAD_CAT_ID":"46027","MEAN_ANOMALY":"303.2081","MEAN_ELEMENT_THEORY":"SGP4","TLE_LINE1":"1 46027U 20055A   22152.79836845  .00001350  00000-0  10950-3 0  9990","MEAN_MOTION_DDOT":"0.0000000000000","ECCENTRICITY":"0.00016500","SEMIMAJOR_AXIS":"6925.348","GP_ID":"205123115","PERIOD":"95.592","BSTAR":"0.00010950000000","PERIAPSIS":"546.071","APOAPSIS":"548.356","CLASSIFICATION_TYPE":"U","OBJECT_TYPE":"PAYLOAD","ARG_OF_PERICENTER":"56.9066","TLE_LINE2":"2 46027  53.0534 187.7120 0001650  56.9066 303.2081 15.06400063101353"},{"SITE":"AFETR","DECAY_DATE":null,"OBJECT_NAME":"STARLINK-1523","EPOCH":"2022-06-01T19:30:54.014688","EPHEMERIS_TYPE":"0","REF_FRAME":"TEME","REV_AT_EPOCH":"10137","OBJECT_ID":"2020-055B","LAUNCH_DATE":"2020-08-07","MEAN_MOTION_DOT":"0.00001407","CENTER_NAME":"EARTH","RA_OF_ASC_NODE":"187.6463","INCLINATION":"53.0538","TIME_SYSTEM":"UTC","RCS_SIZE":"LARGE","FILE":"3476255","MEAN_MOTION":"15.06390982","TLE_LINE1":"1 46028U 20055B   22152.81312517  .00001407  00000-0  11333-3 0  9998","MEAN_MOTION_DDOT":"0.0000000000000","ECCENTRICITY":"0.00014440","SEMIMAJOR_AXIS":"6925.376","GP_ID":"205121887","COUNTRY_CODE":"US","MEAN_ANOMALY":"298.8832","MEAN_ELEMENT_THEORY":"SGP4","ELEMENT_SET_NO":"999","NORAD_CAT_ID":"46028","OBJECT_TYPE":"PAYLOAD","TLE_LINE2":"2 46028  53.0538 187.6463 0001444  61.2301 298.8832 15.06390982101372","ARG_OF_PERICENTER":"61.2301","BSTAR":"0.00011333000000","PERIOD":"95.593","APOAPSIS":"548.241","CLASSIFICATION_TYPE":"U","PERIAPSIS":"546.241"},{"SEMIMAJOR_AXIS":"6925.354","GP_ID":"205122636","TLE_LINE1":"1 46029U 20055C   22152.80573889  .00002727  00000-0  20193-3 0  9999","MEAN_MOTION_DDOT":"0.0000000000000","ECCENTRICITY":"0.00014670","MEAN_ANOMALY":"304.0883","MEAN_ELEMENT_THEORY":"SGP4","ELEMENT_SET_NO":"999","NORAD_CAT_ID":"46029","COUNTRY_CODE":"US","TLE_LINE2":"2 46029  53.0529 187.6891 0001467  56.0246 304.0883 15.06398335101368","ARG_OF_PERICENTER":"56.0246","OBJECT_TYPE":"PAYLOAD","APOAPSIS":"548.235","CLASSIFICATION_TYPE":"U","PERIAPSIS":"546.203","BSTAR":"0.00020193000000","PERIOD":"95.592","DECAY_DATE":null,"SITE":"AFETR","REV_AT_EPOCH":"10136","OBJECT_ID":"2020-055C","LAUNCH_DATE":"2020-08-07","OBJECT_NAME":"STARLINK-1526","EPOCH":"2022-06-01T19:20:15.840096","EPHEMERIS_TYPE":"0","REF_FRAME":"TEME","RA_OF_ASC_NODE":"187.6891","MEAN_MOTION_DOT":"0.00002727","CENTER_NAME":"EARTH","MEAN_MOTION":"15.06398335","FILE":"3476255","INCLINATION":"53.0529","TIME_SYSTEM":"UTC","RCS_SIZE":"LARGE"},{"OBJECT_NAME":"STARLINK-1534","EPOCH":"2022-06-01T19:46:48.926496","REF_FRAME":"TEME","EPHEMERIS_TYPE":"0","OBJECT_ID":"2020-055D","REV_AT_EPOCH":"10132","LAUNCH_DATE":"2020-08-07","SITE":"AFETR","DECAY_DATE":null,"INCLINATION":"53.0548","RCS_SIZE":"LARGE","TIME_SYSTEM":"UTC","FILE":"3476255","MEAN_MOTION":"15.06396729","CENTER_NAME":"EARTH","MEAN_MOTION_DOT":"0.00002330","RA_OF_ASC_NODE":"187.6080","COUNTRY_CODE":"US","MEAN_ANOMALY":"309.1929","MEAN_ELEMENT_THEORY":"SGP4","ELEMENT_SET_NO":"999","NORAD_CAT_ID":"46030","ECCENTRICITY":"0.00015270","TLE_LINE1":"1 46030U 20055D   22152.82417739  .00002330  00000-0  17526-3 0  9990","MEAN_MOTION_DDOT":"0.0000000000000","GP_ID":"205122889","SEMIMAJOR_AXIS":"6925.359","BSTAR":"0.00017526000000","PERIOD":"95.592","CLASSIFICATION_TYPE":"U","APOAPSIS":"548.281","PERIAPSIS":"546.166","OBJECT_TYPE":"PAYLOAD","TLE_LINE2":"2 46030  53.0548 187.6080 0001527  50.9195 309.1929 15.06396729101322","ARG_OF_PERICENTER":"50.9195"}];
